SNUSAT-2                
1 43782U 18099AA  19052.20127547  .00000432  00000-0  44833-4 0  9991
2 43782  97.7573 125.5401 0012577 359.8743   0.2472 14.94972757 11869
SNUGLITE (DS0DH)        
1 43784U 18099AC  19052.19733919  .00000303  00000-0  32915-4 0  9992
2 43784  97.7537 125.5073 0015096   6.8553 353.2871 14.95046053 11870
ITASAT 1 (ITASAT-14)    
1 43786U 18099AE  19052.19634520  .00000243  00000-0  27492-4 0  9999
2 43786  97.7591 125.5663 0015183   5.6648 354.4741 14.95063110 11878
SSO-A MYSTERY-3         
1 43787U 18099AF  19052.19512081  .00000424  00000-0  43930-4 0  9993
2 43787  97.7483 125.4606 0014059   4.5587 355.5759 14.95104758 11871
EAGLET-I                
1 43790U 18099AJ  19052.17586698 -.00000275  00000-0 -19574-4 0  9993
2 43790  97.7584 125.5831 0013700  11.6347 348.5188 14.95445658 11564
ESEO (FUNCUBE 4)        
1 43792U 18099AL  19052.17425945 -.00000305  00000-0 -22275-4 0  9998
2 43792  97.7566 125.5696 0013516   8.9734 351.1725 14.95470670 11625
CSIM-FD                 
1 43793U 18099AM  19052.17138793  .00000110  00000-0  15114-4 0  9997
2 43793  97.7520 125.5107 0012987   7.2236 352.9169 14.95556218 11593
ASTROCAST 0.1           
1 43798U 18099AS  19051.76187479  .00000192  00000-0  22469-4 0  9992
2 43798  97.7574 125.1877 0012214 354.8826   5.2268 14.95686400 11793
JY1SAT (JORDAN-OSCAR 97)
1 43803U 18099AX  19052.19066153  .00000141  00000-0  18120-4 0  9995
2 43803  97.7548 125.5257 0015187   6.5021 353.6394 14.95176416 11866
SUOMI 100               
1 43804U 18099AY  19052.19033695  .00000104  00000-0  14784-4 0  9992
2 43804  97.7547 125.5251 0015267   6.5946 353.5473 14.95180497 11877
AL-FARABI-2 (UN1GWA)    
1 43805U 18099AZ  19052.18916316  .00000185  00000-0  22072-4 0  9990
2 43805  97.7548 125.5269 0015290   6.7001 353.4421 14.95211954 11873
PW-SAT2                 
1 43814U 18099BJ  19051.91554096  .00009450  00000-0  84432-3 0  9994
2 43814  97.7690 125.3306 0002555 348.0177  12.1006 14.96121927 11225
CHOMPTT                 
1 43855U 18104G   19051.63617586  .00000042  00000-0  00000-0 0  9993
2 43855  85.0395 134.4809 0019225  36.2166 324.0410 15.22152071 10066
UWE-4 (DP0UWH)          
1 43880U 18111E   19052.19251331 -.00000148  00000-0 -80115-5 0  9992
2 43880  97.7263 321.8856 0013670  60.6334 299.6250 14.96138716  6387
